[{"OBJECT_NAME":"STARLINK-30772","OBJECT_ID":"2023-162T","EPOCH":"2026-03-09T22:00:01.999584","MEAN_MOTION":15.26763128,"ECCENTRICITY":0.00013659,"INCLINATION":43.0005,"RA_OF_ASC_NODE":131.0178,"ARG_OF_PERICENTER":264.889,"MEAN_ANOMALY":106.181,"EPHEMERIS_TYPE":0,"CLASSIFICATION_TYPE":"U","NORAD_CAT_ID":58135,"ELEMENT_SET_NO":999,"REV_AT_EPOCH":568,"BSTAR":6.5209963e-5,"MEAN_MOTION_DOT":1.491e-5,"MEAN_MOTION_DDOT":0},{"OBJECT_NAME":"FLOCK 4G-15","OBJECT_ID":"2025-009BX","EPOCH":"2026-03-09T17:13:37.807680","MEAN_MOTION":15.27266411,"ECCENTRICITY":0.00036988,"INCLINATION":97.4054,"RA_OF_ASC_NODE":151.1927,"ARG_OF_PERICENTER":316.8208,"MEAN_ANOMALY":43.274,"EPHEMERIS_TYPE":0,"CLASSIFICATION_TYPE":"U","NORAD_CAT_ID":62678,"ELEMENT_SET_NO":999,"REV_AT_EPOCH":12135,"BSTAR":0.00047574812,"MEAN_MOTION_DOT":0.00012647,"MEAN_MOTION_DDOT":0}]
